{"fetchedAt":"2026-06-29T18:07:57.466Z","satellites":[{"id":"49291","name":"ONEWEB-0365","constellationId":"oneweb","omm":{"OBJECT_NAME":"ONEWEB-0365","OBJECT_ID":"2021-090N","EPOCH":"2026-06-29T07:37:03.139680","MEAN_MOTION":13.19725213,"ECCENTRICITY":0.0001919,"INCLINATION":87.9186,"RA_OF_ASC_NODE":302.5509,"ARG_OF_PERICENTER":102.8979,"MEAN_ANOMALY":257.2368,"EPHEMERIS_TYPE":0,"CLASSIFICATION_TYPE":"U","NORAD_CAT_ID":49291,"ELEMENT_SET_NO":999,"REV_AT_EPOCH":22802,"BSTAR":0.000055731,"MEAN_MOTION_DOT":3.5e-7,"MEAN_MOTION_DDOT":0}},{"id":"49292","name":"ONEWEB-0366","constellationId":"oneweb","omm":{"OBJECT_NAME":"ONEWEB-0366","OBJECT_ID":"2021-090P","EPOCH":"2026-06-29T07:26:46.661856","MEAN_MOTION":13.14503189,"ECCENTRICITY":0.0002002,"INCLINATION":87.8971,"RA_OF_ASC_NODE":287.2906,"ARG_OF_PERICENTER":99.8708,"MEAN_ANOMALY":260.2647,"EPHEMERIS_TYPE":0,"CLASSIFICATION_TYPE":"U","NORAD_CAT_ID":49292,"ELEMENT_SET_NO":999,"REV_AT_EPOCH":22915,"BSTAR":-0.000084913,"MEAN_MOTION_DOT":-1.9e-7,"MEAN_MOTION_DDOT":0}},{"id":"49293","name":"ONEWEB-0367","constellationId":"oneweb","omm":{"OBJECT_NAME":"ONEWEB-0367","OBJECT_ID":"2021-090Q","EPOCH":"2026-06-29T06:49:19.763328","MEAN_MOTION":13.20772408,"ECCENTRICITY":0.0002077,"INCLINATION":87.9197,"RA_OF_ASC_NODE":272.0303,"ARG_OF_PERICENTER":105.1129,"MEAN_ANOMALY":255.0234,"EPHEMERIS_TYPE":0,"CLASSIFICATION_TYPE":"U","NORAD_CAT_ID":49293,"ELEMENT_SET_NO":999,"REV_AT_EPOCH":23142,"BSTAR":0.0001879,"MEAN_MOTION_DOT":8.9e-7,"MEAN_MOTION_DDOT":0}},{"id":"49294","name":"ONEWEB-0368","constellationId":"oneweb","omm":{"OBJECT_NAME":"ONEWEB-0368","OBJECT_ID":"2021-090R","EPOCH":"2026-06-28T22:55:23.280384","MEAN_MOTION":13.20770725,"ECCENTRICITY":0.00012978,"INCLINATION":87.9185,"RA_OF_ASC_NODE":272.1047,"ARG_OF_PERICENTER":99.7008,"MEAN_ANOMALY":260.4272,"EPHEMERIS_TYPE":0,"CLASSIFICATION_TYPE":"U","NORAD_CAT_ID":49294,"ELEMENT_SET_NO":999,"REV_AT_EPOCH":23253,"BSTAR":-0.0002233383,"MEAN_MOTION_DOT":-7.8e-7,"MEAN_MOTION_DDOT":0}},{"id":"49295","name":"ONEWEB-0369","constellationId":"oneweb","omm":{"OBJECT_NAME":"ONEWEB-0369","OBJECT_ID":"2021-090S","EPOCH":"2026-06-29T07:30:13.900032","MEAN_MOTION":13.19725295,"ECCENTRICITY":0.0001839,"INCLINATION":87.9178,"RA_OF_ASC_NODE":302.5584,"ARG_OF_PERICENTER":101.3298,"MEAN_ANOMALY":258.8041,"EPHEMERIS_TYPE":0,"CLASSIFICATION_TYPE":"U","NORAD_CAT_ID":49295,"ELEMENT_SET_NO":999,"REV_AT_EPOCH":22801,"BSTAR":0.000050763,"MEAN_MOTION_DOT":3.3e-7,"MEAN_MOTION_DDOT":0}},{"id":"49296","name":"ONEWEB-0370","constellationId":"oneweb","omm":{"OBJECT_NAME":"ONEWEB-0370","OBJECT_ID":"2021-090T","EPOCH":"2026-06-29T07:02:39.365952","MEAN_MOTION":13.20771274,"ECCENTRICITY":0.0002304,"INCLINATION":87.9199,"RA_OF_ASC_NODE":272.028,"ARG_OF_PERICENTER":100.9067,"MEAN_ANOMALY":259.2326,"EPHEMERIS_TYPE":0,"CLASSIFICATION_TYPE":"U","NORAD_CAT_ID":49296,"ELEMENT_SET_NO":999,"REV_AT_EPOCH":23146,"BSTAR":-0.000040257,"MEAN_MOTION_DOT":-3e-8,"MEAN_MOTION_DDOT":0}},{"id":"49297","name":"ONEWEB-0371","constellationId":"oneweb","omm":{"OBJECT_NAME":"ONEWEB-0371","OBJECT_ID":"2021-090U","EPOCH":"2026-06-29T07:41:34.822752","MEAN_MOTION":13.19724442,"ECCENTRICITY":0.0001977,"INCLINATION":87.9188,"RA_OF_ASC_NODE":302.55,"ARG_OF_PERICENTER":102.335,"MEAN_ANOMALY":257.8004,"EPHEMERIS_TYPE":0,"CLASSIFICATION_TYPE":"U","NORAD_CAT_ID":49297,"ELEMENT_SET_NO":999,"REV_AT_EPOCH":22805,"BSTAR":0.000038967,"MEAN_MOTION_DOT":2.9e-7,"MEAN_MOTION_DDOT":0}},{"id":"49298","name":"ONEWEB-0372","constellationId":"oneweb","omm":{"OBJECT_NAME":"ONEWEB-0372","OBJECT_ID":"2021-090V","EPOCH":"2026-06-29T06:47:54.051072","MEAN_MOTION":13.20773594,"ECCENTRICITY":0.0002009,"INCLINATION":87.9197,"RA_OF_ASC_NODE":272.0316,"ARG_OF_PERICENTER":100.2569,"MEAN_ANOMALY":259.8791,"EPHEMERIS_TYPE":0,"CLASSIFICATION_TYPE":"U","NORAD_CAT_ID":49298,"ELEMENT_SET_NO":999,"REV_AT_EPOCH":23143,"BSTAR":0.00029624,"MEAN_MOTION_DOT":0.00000133,"MEAN_MOTION_DDOT":0}},{"id":"49299","name":"ONEWEB-0373","constellationId":"oneweb","omm":{"OBJECT_NAME":"ONEWEB-0373","OBJECT_ID":"2021-090W","EPOCH":"2026-06-28T16:51:45.067680","MEAN_MOTION":13.20772203,"ECCENTRICITY":0.00020821,"INCLINATION":87.9194,"RA_OF_ASC_NODE":272.1474,"ARG_OF_PERICENTER":98.3762,"MEAN_ANOMALY":261.7608,"EPHEMERIS_TYPE":0,"CLASSIFICATION_TYPE":"U","NORAD_CAT_ID":49299,"ELEMENT_SET_NO":999,"REV_AT_EPOCH":23254,"BSTAR":-0.00013828611,"MEAN_MOTION_DOT":-4.3e-7,"MEAN_MOTION_DDOT":0}},{"id":"49300","name":"ONEWEB-0374","constellationId":"oneweb","omm":{"OBJECT_NAME":"ONEWEB-0374","OBJECT_ID":"2021-090X","EPOCH":"2026-06-29T07:08:30.196608","MEAN_MOTION":13.14503874,"ECCENTRICITY":0.0001866,"INCLINATION":87.8977,"RA_OF_ASC_NODE":287.2844,"ARG_OF_PERICENTER":82.8853,"MEAN_ANOMALY":277.2489,"EPHEMERIS_TYPE":0,"CLASSIFICATION_TYPE":"U","NORAD_CAT_ID":49300,"ELEMENT_SET_NO":999,"REV_AT_EPOCH":22915,"BSTAR":0.00047079,"MEAN_MOTION_DOT":0.00000187,"MEAN_MOTION_DDOT":0}},{"id":"49301","name":"ONEWEB-0375","constellationId":"oneweb","omm":{"OBJECT_NAME":"ONEWEB-0375","OBJECT_ID":"2021-090Y","EPOCH":"2026-06-29T07:07:30.349056","MEAN_MOTION":13.20771671,"ECCENTRICITY":0.0002043,"INCLINATION":87.9197,"RA_OF_ASC_NODE":272.0209,"ARG_OF_PERICENTER":83.6104,"MEAN_ANOMALY":276.5262,"EPHEMERIS_TYPE":0,"CLASSIFICATION_TYPE":"U","NORAD_CAT_ID":49301,"ELEMENT_SET_NO":999,"REV_AT_EPOCH":23212,"BSTAR":-0.00014559,"MEAN_MOTION_DOT":-4.6e-7,"MEAN_MOTION_DDOT":0}},{"id":"49302","name":"ONEWEB-0376","constellationId":"oneweb","omm":{"OBJECT_NAME":"ONEWEB-0376","OBJECT_ID":"2021-090Z","EPOCH":"2026-06-29T07:39:19.114272","MEAN_MOTION":13.19725656,"ECCENTRICITY":0.0001843,"INCLINATION":87.9186,"RA_OF_ASC_NODE":302.5503,"ARG_OF_PERICENTER":105.118,"MEAN_ANOMALY":255.0157,"EPHEMERIS_TYPE":0,"CLASSIFICATION_TYPE":"U","NORAD_CAT_ID":49302,"ELEMENT_SET_NO":999,"REV_AT_EPOCH":22805,"BSTAR":0.000030923,"MEAN_MOTION_DOT":2.5e-7,"MEAN_MOTION_DDOT":0}},{"id":"49303","name":"ONEWEB-0377","constellationId":"oneweb","omm":{"OBJECT_NAME":"ONEWEB-0377","OBJECT_ID":"2021-090AA","EPOCH":"2026-06-29T06:48:17.498304","MEAN_MOTION":13.20772597,"ECCENTRICITY":0.0002125,"INCLINATION":87.9195,"RA_OF_ASC_NODE":272.0251,"ARG_OF_PERICENTER":92.8972,"MEAN_ANOMALY":267.2404,"EPHEMERIS_TYPE":0,"CLASSIFICATION_TYPE":"U","NORAD_CAT_ID":49303,"ELEMENT_SET_NO":999,"REV_AT_EPOCH":23211,"BSTAR":0.00027693,"MEAN_MOTION_DOT":0.00000126,"MEAN_MOTION_DDOT":0}},{"id":"49304","name":"ONEWEB-0378","constellationId":"oneweb","omm":{"OBJECT_NAME":"ONEWEB-0378","OBJECT_ID":"2021-090AB","EPOCH":"2026-06-29T07:17:24.184032","MEAN_MOTION":13.20770996,"ECCENTRICITY":0.0001934,"INCLINATION":87.9192,"RA_OF_ASC_NODE":272.0259,"ARG_OF_PERICENTER":96.7294,"MEAN_ANOMALY":263.406,"EPHEMERIS_TYPE":0,"CLASSIFICATION_TYPE":"U","NORAD_CAT_ID":49304,"ELEMENT_SET_NO":999,"REV_AT_EPOCH":23138,"BSTAR":0.00010968,"MEAN_MOTION_DOT":5.8e-7,"MEAN_MOTION_DDOT":0}},{"id":"49305","name":"ONEWEB-0379","constellationId":"oneweb","omm":{"OBJECT_NAME":"ONEWEB-0379","OBJECT_ID":"2021-090AC","EPOCH":"2026-06-29T07:01:39.138240","MEAN_MOTION":13.14503776,"ECCENTRICITY":0.0001875,"INCLINATION":87.8973,"RA_OF_ASC_NODE":287.2958,"ARG_OF_PERICENTER":97.7023,"MEAN_ANOMALY":262.432,"EPHEMERIS_TYPE":0,"CLASSIFICATION_TYPE":"U","NORAD_CAT_ID":49305,"ELEMENT_SET_NO":999,"REV_AT_EPOCH":22915,"BSTAR":0.00069102,"MEAN_MOTION_DOT":0.00000269,"MEAN_MOTION_DDOT":0}}]}