[
  {
    "name": "ONEWEB-0365",
    "noradId": "49291",
    "line1": "1 49291U 21090N   26180.31739745  .00000035  00000+0  55731-4 0  9995",
    "line2": "2 49291  87.9186 302.5509 0001919 102.8979 257.2368 13.19725213228027"
  },
  {
    "name": "ONEWEB-0366",
    "noradId": "49292",
    "line1": "1 49292U 21090P   26180.31026229 -.00000019  00000+0 -84913-4 0  9990",
    "line2": "2 49292  87.8971 287.2906 0002002  99.8708 260.2647 13.14503189229158"
  },
  {
    "name": "ONEWEB-0367",
    "noradId": "49293",
    "line1": "1 49293U 21090Q   26180.28425652  .00000089  00000+0  18790-3 0  9994",
    "line2": "2 49293  87.9197 272.0303 0002077 105.1129 255.0234 13.20772408231429"
  },
  {
    "name": "ONEWEB-0368",
    "noradId": "49294",
    "line1": "1 49294U 21090R   26179.95513056 -.00000078  00000+0 -22334-3 0  9992",
    "line2": "2 49294  87.9185 272.1047 0001297  99.7008 260.4272 13.20770725232535"
  },
  {
    "name": "ONEWEB-0369",
    "noradId": "49295",
    "line1": "1 49295U 21090S   26180.31266088  .00000033  00000+0  50763-4 0  9992",
    "line2": "2 49295  87.9178 302.5584 0001839 101.3298 258.8041 13.19725295228018"
  },
  {
    "name": "ONEWEB-0370",
    "noradId": "49296",
    "line1": "1 49296U 21090T   26180.29351118 -.00000003  00000+0 -40257-4 0  9995",
    "line2": "2 49296  87.9199 272.0280 0002304 100.9067 259.2326 13.20771274231467"
  },
  {
    "name": "ONEWEB-0371",
    "noradId": "49297",
    "line1": "1 49297U 21090U   26180.32054193  .00000029  00000+0  38967-4 0  9994",
    "line2": "2 49297  87.9188 302.5500 0001977 102.3350 257.8004 13.19724442228057"
  },
  {
    "name": "ONEWEB-0372",
    "noradId": "49298",
    "line1": "1 49298U 21090V   26180.28326448  .00000133  00000+0  29624-3 0  9990",
    "line2": "2 49298  87.9197 272.0316 0002009 100.2569 259.8791 13.20773594231435"
  },
  {
    "name": "ONEWEB-0373",
    "noradId": "49299",
    "line1": "1 49299U 21090W   26179.70260495 -.00000043  00000+0 -13829-3 0  9997",
    "line2": "2 49299  87.9194 272.1474 0002082  98.3762 261.7608 13.20772203232540"
  },
  {
    "name": "ONEWEB-0374",
    "noradId": "49300",
    "line1": "1 49300U 21090X   26180.29757172  .00000187  00000+0  47079-3 0  9990",
    "line2": "2 49300  87.8977 287.2844 0001866  82.8853 277.2489 13.14503874229158"
  },
  {
    "name": "ONEWEB-0375",
    "noradId": "49301",
    "line1": "1 49301U 21090Y   26180.29687904 -.00000046  00000+0 -14559-3 0  9999",
    "line2": "2 49301  87.9197 272.0209 0002043  83.6104 276.5262 13.20771671232128"
  },
  {
    "name": "ONEWEB-0376",
    "noradId": "49302",
    "line1": "1 49302U 21090Z   26180.31897123  .00000025  00000+0  30923-4 0  9998",
    "line2": "2 49302  87.9186 302.5503 0001843 105.1180 255.0157 13.19725656228056"
  },
  {
    "name": "ONEWEB-0377",
    "noradId": "49303",
    "line1": "1 49303U 21090AA  26180.28353586  .00000126  00000+0  27693-3 0  9996",
    "line2": "2 49303  87.9195 272.0251 0002125  92.8972 267.2404 13.20772597232113"
  },
  {
    "name": "ONEWEB-0378",
    "noradId": "49304",
    "line1": "1 49304U 21090AB  26180.30375213  .00000058  00000+0  10968-3 0  9992",
    "line2": "2 49304  87.9192 272.0259 0001934  96.7294 263.4060 13.20770996231381"
  },
  {
    "name": "ONEWEB-0379",
    "noradId": "49305",
    "line1": "1 49305U 21090AC  26180.29281410  .00000269  00000+0  69102-3 0  9994",
    "line2": "2 49305  87.8973 287.2958 0001875  97.7023 262.4320 13.14503776229150"
  }
]